[{"OBJECT_NAME":"LMRST-SAT","OBJECT_ID":"2015-058H","EPOCH":"2026-03-09T17:22:48.893664","MEAN_MOTION":14.89988841,"ECCENTRICITY":0.01310128,"INCLINATION":64.7755,"RA_OF_ASC_NODE":224.0879,"ARG_OF_PERICENTER":97.8444,"MEAN_ANOMALY":263.7563,"EPHEMERIS_TYPE":0,"CLASSIFICATION_TYPE":"U","NORAD_CAT_ID":40971,"ELEMENT_SET_NO":999,"REV_AT_EPOCH":9873,"BSTAR":0.00042420191,"MEAN_MOTION_DOT":4.653e-5,"MEAN_MOTION_DDOT":0},{"OBJECT_NAME":"STARLINK-3917","OBJECT_ID":"2022-051BE","EPOCH":"2026-03-09T12:33:35.622144","MEAN_MOTION":15.08839707,"ECCENTRICITY":0.00013509,"INCLINATION":53.2164,"RA_OF_ASC_NODE":119.8689,"ARG_OF_PERICENTER":94.3359,"MEAN_ANOMALY":265.7788,"EPHEMERIS_TYPE":0,"CLASSIFICATION_TYPE":"U","NORAD_CAT_ID":52588,"ELEMENT_SET_NO":999,"REV_AT_EPOCH":21156,"BSTAR":8.421994e-6,"MEAN_MOTION_DOT":-1.54e-6,"MEAN_MOTION_DDOT":0}]
