LMRST-SAT               
1 40971U 15058H   26068.72417700  .00004653  00000+0  42420-3 0  9992
2 40971  64.7755 224.0879 0131013  97.8444 263.7563 14.89988841 98733
STARLINK-3917           
1 52588U 22051BE  26068.52332896 -.00000154  00000+0  84220-5 0  9999
2 52588  53.2164 119.8689 0001350  94.3359 265.7788 15.08839707211561
